FENGYUN 1C DEB          
1 30047U 99025NY  17345.79353286  .00000252  00000-0  22783-3 0  9996
2 30047  99.8605 268.6820 0131855 133.0646 290.1695 13.89897196552859
